satname,norad_id,inclination_deg,eccentricity,mean_motion_rev_per_day,perigee_km,apogee_km,l1,l2
STARLINK-1296,45412,53.1572,0.0002429,15.33717824,463.06942975923357,466.39369530691147,1 45412U 20019BE  26106.86391573  .00033103  00000+0  10080-2 0  9995,2 45412  53.1572 311.5018 0002429 218.5141 141.5688 15.33717824335824
STARLINK-1309,45414,53.0645,0.0005318,15.62350674,377.27450804857926,384.4633867742468,1 45414U 20019BG  26106.26948287  .00071860  00000+0  79567-3 0  9999,2 45414  53.0645 301.0214 0005318 190.5622 169.5281 15.62350674335895
STARLINK-1316,45415,53.158,0.0002897,15.33905082,462.19241862523086,466.156853987306,1 45415U 20019BH  26105.99570553  .00028819  00000+0  87429-3 0  9998,2 45415  53.1580 315.5953 0002897 219.8113 140.2677 15.33905082335717
STARLINK-1286,45417,53.0475,0.0003108,15.53970076,403.0398997167076,407.2563897626778,1 45417U 20019BK  26106.84716991  .00030756  00000+0  47327-3 0  9999,2 45417  53.0475 306.9501 0003108 173.2974 186.8077 15.53970076336154
STARLINK-1308,45419,53.0506,0.0005891,15.5777925,390.09619004199067,398.07522283471644,1 45419U 20019BM  26106.87867746  .00059029  00000+0  78037-3 0  9995,2 45419  53.0506 327.7000 0005891 183.0798 177.0178 15.57779250335619
STARLINK-1329,45531,53.0441,0.0001781,15.67224722,365.646779540215,368.04934321907876,1 45531U 20025A   26106.74864976  .00038131  00000+0  35206-3 0  9997,2 45531  53.0441 255.0851 0001781 337.0174  23.0761 15.67224722331403
STARLINK-1338,45532,53.0468,6.93e-05,15.61656556,382.4030693163777,383.34014510933866,1 45532U 20025B   26106.67443013  .00061913  00000+0  70627-3 0  9995,2 45532  53.0468 260.2129 0000693 224.4146 135.6811 15.61656556331323
STARLINK-1350,45535,53.0724,7.55e-05,15.37074361,454.250118840735,455.28188719418995,1 45535U 20025E   26106.57952213  .00006658  00000+0  19122-3 0  9992,2 45535  53.0724 215.0590 0000755 110.3578 249.7506 15.37074361331983
STARLINK-1362,45538,53.1616,0.0002523,15.32431566,466.8326809734035,470.2875243314029,1 45538U 20025H   26106.97483214 -.00165250  00000+0 -53076-2 0  9990,2 45538  53.1616 282.9397 0002523  68.3977 291.7293 15.32431566331041
STARLINK-1368,45540,53.1575,8.1e-05,15.32872162,466.6935918981626,467.80254427919226,1 45540U 20025K   26106.85816057  .00030125  00000+0  94344-3 0  9999,2 45540  53.1575 283.8601 0000810  52.7884 307.3192 15.32872162331017
STARLINK-1371,45542,53.0473,0.0002792,15.53580081,404.38909187686295,408.1775121735136,1 45542U 20025M   26106.78213766  .00059373  00000+0  91654-3 0  9998,2 45542  53.0473 266.5427 0002792 288.4277  71.6429 15.53580081331242
STARLINK-1372,45543,53.159,5.77e-05,15.33258477,465.703279584528,466.49310432567927,1 45543U 20025N   26106.63740258  .00029994  00000+0  92810-3 0  9995,2 45543  53.1590 284.5653 0000577  55.7510 304.3547 15.33258477330086
STARLINK-1373,45544,53.046,0.0001703,15.57794195,392.8890904660193,395.1956947671433,1 45544U 20025P   26106.63532884  .00061903  00000+0  81779-3 0  9998,2 45544  53.0460 265.7136 0001703 230.6598 129.4262 15.57794195331248
STARLINK-1327,45555,53.0435,0.0004088,15.60359845,383.85140611687893,389.3822688544078,1 45555U 20025AA  26106.77080980  .00063222  00000+0  75755-3 0  9993,2 45555  53.0435 241.8315 0004088 232.3167 127.7475 15.60359845331583
STARLINK-1356,45564,53.0473,0.000236,15.50882984,412.5437747266051,415.74973265834706,1 45564U 20025AK  26106.89047669  .00048234  00000+0  82285-3 0  9995,2 45564  53.0473 251.1346 0002360 222.6921 137.3904 15.50882984331469
STARLINK-1357,45565,53.0477,0.0006253,15.639482,372.0418882435879,380.48894390513124,1 45565U 20025AL  26106.58408210  .00075194  00000+0  78139-3 0  9993,2 45565  53.0477 213.5072 0006253 314.3587  45.6914 15.63948200331970
STARLINK-1361,45567,53.0469,0.0002566,15.54096141,403.04081242259235,406.5218060989055,1 45567U 20025AN  26106.90202673  .00056708  00000+0  85979-3 0  9996,2 45567  53.0469 250.2798 0002566 171.2056 188.8999 15.54096141331487
STARLINK-1363,45568,53.037,0.000144,15.8820555,306.3511674441361,308.27657729537805,1 45568U 20025AP  26107.00002315  .00037350  00000+0  13541-3 0  9998,2 45568  53.0370 204.8605 0001440 358.6911 115.5070 15.88205550  6010
STARLINK-1366,45569,53.0384,0.0001324,15.8567685,313.53347517887323,315.3056641585217,1 45569U 20025AQ  26106.52473843  .00103198  00000+0  41475-3 0  9994,2 45569  53.0384 208.4436 0001324 295.5666  64.5220 15.85676850332020
STARLINK-1376,45570,53.1583,0.0002129,15.3372419,463.2557847908329,466.16947016221184,1 45570U 20025AR  26106.82261086  .00030800  00000+0  93876-3 0  9994,2 45570  53.1583 260.2433 0002129 301.9931  58.0864 15.33724190331348
STARLINK-1320,45572,53.0453,0.0002786,15.75304043,341.89340868115687,345.63885310569003,1 45572U 20025AT  26106.44470678  .00053250  00000+0  34829-3 0  9990,2 45572  53.0453 158.5114 0002786 108.1884 251.9438 15.75304043332746
STARLINK-1321,45573,53.0458,0.0003119,15.55252654,399.3037515045262,403.53283809742334,1 45573U 20025AU  26106.62806540  .00058350  00000+0  84766-3 0  9993,2 45573  53.0458 235.9393 0003119 289.1691  70.8982 15.55252654331354
STARLINK-1331,45578,53.0498,0.000496,15.54907035,399.0597229148898,405.7860383164607,1 45578U 20025AZ  26106.83256198  .00054252  00000+0  79888-3 0  9995,2 45578  53.0498 241.6924 0004960 269.4746  90.5696 15.54907035331602
STARLINK-1333,45580,53.1572,8.38e-05,15.30849116,472.70346238374987,473.85175947254174,1 45580U 20025BB  26106.70444721  .00031283  00000+0  10428-2 0  9998,2 45580  53.1572 261.2109 0000838  51.5182 308.5894 15.30849116331326
STARLINK-1335,45581,53.157,0.0001727,15.32344892,467.6358107886563,470.00074914235756,1 45581U 20025BC  26106.72178361  .00008626  00000+0  28370-3 0  9996,2 45581  53.1570 258.4398 0001727  48.0022 312.1127 15.32344892331351
STARLINK-1337,45582,53.0497,0.0005362,15.65862353,367.14102460527556,374.3785415154298,1 45582U 20025BD  26106.82277832  .00075320  00000+0  72560-3 0  9996,2 45582  53.0497 235.5081 0005362 282.3782  77.6632 15.65862353331671
STARLINK-1347,45586,53.0412,0.0003423,15.62229054,378.9060088080223,383.5334644299128,1 45586U 20025BH  26106.52602304  .00067539  00000+0  75237-3 0  9990,2 45586  53.0412 205.6756 0003423 322.8076  37.2699 15.62229054332062
STARLINK-1364,45589,53.0472,0.0004378,15.56424636,395.0479483379904,400.9811466329693,1 45589U 20025BL  26106.65711723  .00055439  00000+0  77181-3 0  9999,2 45589  53.0472 240.1905 0004378 233.3040 126.7569 15.56424636331591
STARLINK-1365,45590,53.0492,0.0003247,15.51429189,410.3475031920552,414.75737691442555,1 45590U 20025BM  26106.81540183  .00052167  00000+0  87169-3 0  9991,2 45590  53.0492 271.0431 0003247 225.0166 135.0579 15.51429189331196
STARLINK-1443,45660,53.1345,0.0001747,15.28572824,478.879702894852,481.2759631575118,1 45660U 20035D   26106.68011375  .00025029  00000+0  89797-3 0  9997,2 45660  53.1345 249.2436 0001747 260.0834  99.9969 15.28572824324561
STARLINK-1446,45663,53.0232,0.0003577,15.44570737,430.20345380065464,435.07588342938107,1 45663U 20035G   26106.49063912  .00021973  00000+0  47303-3 0  9994,2 45663  53.0232 179.5896 0003577  31.6237 328.4983 15.44570737325516
STARLINK-1448,45665,53.0466,0.0005503,15.60762859,381.73027223465124,389.17427859117106,1 45665U 20035J   26106.79183394  .00070592  00000+0  83121-3 0  9995,2 45665  53.0466 228.1081 0005503 270.1036  89.9346 15.60762859324856
STARLINK-1451,45668,53.0524,4.96e-05,15.1203325,529.6574392027305,530.3427264013453,1 45668U 20035M   26106.71181988  .00014306  00000+0  83839-3 0  9994,2 45668  53.0524 254.1274 0000496  76.8091 283.2955 15.12033250324493
STARLINK-1452,45669,53.029,0.0001156,15.50695873,413.90787463309516,415.47837695817816,1 45669U 20035N   26106.77266135  .00045526  00000+0  78255-3 0  9993,2 45669  53.0290 199.4638 0001156 239.2307 120.8587 15.50695873325268
STARLINK-1453,45670,53.0415,0.0002332,15.61248156,382.4736685565904,385.6275528582255,1 45670U 20035P   26106.51795989  .00073030  00000+0  84400-3 0  9991,2 45670  53.0415 189.9220 0002332 348.7163  11.3797 15.61248156325260
STARLINK-1454,45671,53.0463,0.0004331,15.59020891,387.55803160086634,393.4210158957367,1 45671U 20035Q   26106.60503186  .00038994  00000+0  49555-3 0  9990,2 45671  53.0463 229.5252 0004331 246.7004 113.3552 15.59020891324815
STARLINK-1456,45673,53.0466,0.0006001,15.56933838,392.4715384547126,400.60250221391834,1 45673U 20035S   26106.64501173  .00059932  00000+0  81748-3 0  9995,2 45673  53.0466 223.2852 0006001 319.4860  40.5703 15.56933838324923
STARLINK-1457,45674,53.0406,0.0004025,15.92225723,293.3694779049292,298.7422031415508,1 45674U 20035T   26107.00002315  .00187099  24213-4  55341-3 0  9994,2 45674  53.0406 188.7647 0004025 333.4033 352.6895 15.92225723  6021
STARLINK-1458,45675,53.0494,0.0004863,15.48792046,416.9525755385039,423.564695133432,1 45675U 20035U   26106.69673818  .00052785  00000+0  96769-3 0  9996,2 45675  53.0494 234.2988 0004863 261.5971  98.4485 15.48792046324735
STARLINK-1460,45676,53.1582,0.0001101,15.30824723,472.59604476939967,474.10474229345436,1 45676U 20035V   26106.67563802  .00027448  00000+0  91758-3 0  9997,2 45676  53.1582 248.4846 0001101  35.6692 324.4383 15.30824723324533
STARLINK-1392,45677,53.1557,8.2e-05,15.33627874,464.4379870225521,465.5602613469182,1 45677U 20035W   26106.66810602  .00018711  00000+0  57738-3 0  9993,2 45677  53.1557 248.3170 0000820  78.1276 281.9819 15.33627874324578
STARLINK-1394,45679,53.045,0.0006707,15.5687868,392.15314958955423,401.2409119584345,1 45679U 20035Y   26106.57776656  .00051293  00000+0  70267-3 0  9999,2 45679  53.0450 213.8320 0006707 321.6576  38.3957 15.56878680325042
STARLINK-1402,45685,53.0445,0.000722,15.51016977,408.85180949374626,418.65930234449206,1 45685U 20035AE  26106.74761167  .00045089  00000+0  76573-3 0  9998,2 45685  53.0445 201.3179 0007220 350.7770   9.3105 15.51016977325240
